{
  "norad_id": 60950,
  "name": "YAOGAN-43 02F",
  "history": [
    {
      "epoch": "2026-03-28T22:41:29.356224",
      "apogee_km": 497.7645651309167,
      "perigee_km": 495.5951479236701,
      "latitude_deg": 33.293504347311945,
      "longitude_deg": 5.7659513601101935,
      "semi_major_axis_km": 6874.816856527293,
      "eccentricity": 0.00015778,
      "inclination_deg": 34.9937,
      "raan_deg": 342.5716,
      "arg_perigee_deg": 312.4785,
      "mean_anomaly_deg": 47.5797,
      "mean_motion_rev_day": 15.23039133
    },
    {
      "epoch": "2026-03-29T03:24:39.943008",
      "apogee_km": 497.7330328453245,
      "perigee_km": 495.5977192273267,
      "latitude_deg": -33.24117122441126,
      "longitude_deg": 24.64438111986965,
      "semi_major_axis_km": 6874.802376036325,
      "eccentricity": 0.0001553,
      "inclination_deg": 34.9936,
      "raan_deg": 341.3349,
      "arg_perigee_deg": 313.0621,
      "mean_anomaly_deg": 46.9963,
      "mean_motion_rev_day": 15.23043945
    }
  ]
}